[{"OBJECT_NAME":"HODOYOSHI-3","OBJECT_ID":"2014-033F","EPOCH":"2026-03-09T21:11:10.652352","MEAN_MOTION":14.85138877,"ECCENTRICITY":0.00320899,"INCLINATION":97.6303,"RA_OF_ASC_NODE":235.9902,"ARG_OF_PERICENTER":323.6224,"MEAN_ANOMALY":36.2811,"EPHEMERIS_TYPE":0,"CLASSIFICATION_TYPE":"U","NORAD_CAT_ID":40015,"ELEMENT_SET_NO":999,"REV_AT_EPOCH":63288,"BSTAR":0.00019822754,"MEAN_MOTION_DOT":1.659e-5,"MEAN_MOTION_DDOT":0},{"OBJECT_NAME":"FENGYUN 1C DEB","OBJECT_ID":"1999-025PX","EPOCH":"2026-03-09T16:04:06.485664","MEAN_MOTION":14.10804989,"ECCENTRICITY":0.03269575,"INCLINATION":98.2718,"RA_OF_ASC_NODE":126.6385,"ARG_OF_PERICENTER":69.088,"MEAN_ANOMALY":54.3136,"EPHEMERIS_TYPE":0,"CLASSIFICATION_TYPE":"U","NORAD_CAT_ID":30070,"ELEMENT_SET_NO":999,"REV_AT_EPOCH":97104,"BSTAR":0.0013765845,"MEAN_MOTION_DOT":4.031e-5,"MEAN_MOTION_DDOT":0}]
